STARLINK-5499           
1 55764U 23028Z   26068.84876505 -.00000074  00000+0  16022-5 0  9994
2 55764  70.0001 224.1861 0002514 277.4306  82.6567 14.98331604166558
NIGHTJAR                
1 60535U 24149BV  26068.64552146  .00004278  00000+0  36344-3 0  9997
2 60535  97.6919 146.7603 0002393  83.3363 276.8132 14.98398810127967
